SOYUZ-TMA 15            
1 35010U 09030A   09170.53666943  .00012948  00000-0  93723-4 0   308
2 35010  51.6411 294.8399 0008740 127.9227 332.1149 15.73829405  3642
